#aV2016  3 23  0  0  0.00000000     288 DD+AD WGS84 FIT  NGA
## 1889 259200.00000000   300.00000000 57470 0.0000000000000
+   31     1  2  3  5  6  7  8  9 10 11 12 13 14 15 16 17 18
+         19 20 21 22 23 24 25 26 27 28 29 30 31 32  0  0  0
+          0  0  0  0  0  0  0  0  0  0  0  0  0  0  0  0  0
+          0  0  0  0  0  0  0  0  0  0  0  0  0  0  0  0  0
+          0  0  0  0  0  0  0  0  0  0  0  0  0  0  0  0  0
++         2  2  2  2  2  2  2  2  2  2  2  2  2  2  2  2  2
++         2  2  2  2  2  2  2  2  2  2  2  2  2  2  0  0  0
++         0  0  0  0  0  0  0  0  0  0  0  0  0  0  0  0  0
++         0  0  0  0  0  0  0  0  0  0  0  0  0  0  0  0  0
++         0  0  0  0  0  0  0  0  0  0  0  0  0  0  0  0  0
%c cc cc ccc ccc cccc cccc cccc cccc ccccc ccccc ccccc ccccc
%c cc cc ccc ccc cccc cccc cccc cccc ccccc ccccc ccccc ccccc
%f  0.0000000  0.000000000  0.00000000000  0.000000000000000
%f  0.0000000  0.000000000  0.00000000000  0.000000000000000
%i    0    0    0    0      0      0      0      0         0
%i    0    0    0    0      0      0      0      0         0
/*      NGA, ST. LOUIS,MO.                                  
/*   EPHEMERIS COMPUTED FROM 2 DAYS OF DATA                 
/*   EPOCHA v2.4 SMOOTHER                                   
/*   G1762 IERS2010 SATAF SATAPC                            
*  2016  3 23 17 45  0.00000000
P  1 -22609.643943 -14156.592538   -746.014645     15.199270                    
V  1   2033.650556  -1733.947022 -31653.391490      0.010935                    
P  2   6578.786905  18683.756924  18310.502846    598.831998                    
V  2 -20324.537159  -9295.029371  16789.101908     -0.004396                    
P  3 -13212.635035 -12953.633878  19054.725006    -39.441552                    
V  3   1630.848384 -24178.878356 -15318.429747     -0.043400                    
P  5   3000.039165  25966.454665  -4141.909879   -135.113672                    
V  5  -3357.676674   5218.635445  30981.327890      0.032607                    
P  6  -8872.711656  12345.564880  21790.950151    164.818234                    
V  6 -23745.391693 -14128.384520  -1666.619291      0.057697                    
P  7 -22694.655455  -3050.601086 -13657.308191    463.821306                    
V  7 -13795.515819 -10753.435473  24697.217057     -0.018896                    
P  8  -9700.884776 -11828.274780 -21657.380257    -28.597775                    
V  8  23843.077236 -13959.675860  -3020.679097     -0.014811                    
P  9 -24080.622442   6208.006641   9327.327213     95.632162                    
V  9   8959.949219  -8249.274791  28549.525915      0.075187                    
P 10  11071.357216 -18337.533680 -15652.299600     20.509586                    
V 10   1892.322740  19938.106764 -22057.789986     -0.093082                    
P 11 -21697.562033 -11949.865249 -10199.858899   -637.862459                    
V 11  12820.430199  -1953.185647 -26372.862605     -0.015642                    
P 12  10364.463414  17183.915114  17393.911598    373.567989                    
V 12  -2420.643969  22066.001161 -20001.263600      0.014774                    
P 13    385.775198  15785.204529 -21505.814804     -5.657003                    
V 13 -24990.607836  10072.776859   6902.161196     -0.028021                    
P 14  20399.874469 -15265.910456   7470.829013     -4.224081                    
V 14   9432.484845  -1514.541884 -30005.920000     -0.022126                    
P 15  14517.917356   8870.400618 -20585.573617   -303.100657                    
V 15 -21330.291536  14728.753056  -8400.618698     -0.017906                    
P 16   -466.382605 -26066.577239  -3897.259116    -29.979453                    
V 16   2519.795919  -4684.572164  32170.307529      0.028838                    
P 17 -21036.299583  15076.583620   5828.608794   -202.385735                    
V 17  -7323.679061   1042.131269 -31054.171706     -0.003906                    
P 18  15203.561755  -6036.670373 -20356.757400    496.818257                    
V 18   1616.385821  27217.795266  -6956.732258      0.041030                    
P 19 -14430.959607  17136.107538  14330.067079   -525.420618                    
V 19 -17498.222986   5986.865005 -24014.004035     -0.001491                    
P 20  13502.808590  16079.319014 -16391.023103    401.236149                    
V 20   -975.002172  20780.561628  19818.800232      0.025042                    
P 21  21409.171014   -827.009290 -15118.761008   -516.107530                    
V 21  16663.070278  12225.356188  21595.670356     -0.016150                    
P 22  -6289.137543 -24636.510176   7676.250751    376.196908                    
V 22   3607.173230  -9600.143457 -28897.058519     -0.068704                    
P 23 -20091.259693  -3116.980682  17491.798218   -166.037078                    
V 23  18118.459752 -12125.981854  18406.855937     -0.017758                    
P 24  21476.323056  15314.077332  -3965.207412    -14.383388                    
V 24  -5755.181858    144.570941 -30852.663928     -0.006333                    
P 25  14533.524101   4427.880605  21692.218650   -139.554009                    
V 25   -594.638210  27733.502421  -5045.848566     -0.070486                    
P 26   4847.931258 -25184.194185   6814.580732   -303.709675                    
V 26   2685.191087   8674.867376  30188.930216     -0.143791                    
P 27   1529.054157 -16936.270972 -20382.899732     74.894399                    
V 27  22946.162093 -11936.311007  11808.666735      0.037759                    
P 28 -11882.639350  17112.055991 -15818.452499    511.131856                    
V 28    279.727248 -21276.696206 -22395.316589      0.026588                    
P 29  23509.106797  -2520.959682  12067.961292    656.233421                    
V 29 -12833.887629   8544.066099  26863.585633      0.004497                    
P 30 -16608.156521   5782.090091 -19938.135578    109.682125                    
V 30 -20183.289772 -15298.512021  12295.385609      0.037793                    
P 31   6930.582461 -13372.538926  21968.550826    277.093731                    
V 31  23457.398915  14590.903361   1844.463331     -0.017345                    
P 32  18904.326206 -17004.116297   7673.565196      9.432953                    
V 32   9783.044794  -2523.031656 -29697.979856     -0.008874                    
EOF
